KUIPER-00016            
1 63732U 25088J   25327.21550686 -.00012738  00000+0 -16451-2 0  9997
2 63732  51.8992 222.4240 0013420  73.2251 287.0183 14.79850293 31565
KUIPER-00018            
1 63733U 25088K   25327.09284666 -.00001987  00000+0 -23075-3 0  9991
2 63733  51.9010 211.9161 0013747  95.1078 265.1454 14.79935186 31704
KUIPER-00019            
1 63734U 25088L   25327.09390405  .00000408  00000+0  82751-4 0  9993
2 63734  51.8976 210.4651 0010364 107.4772 252.7324 14.79941011 31727
KUIPER-00020            
1 63735U 25088M   25324.86150623  .00185776  00000+0  24137-1 0  9995
2 63735  51.9004 224.3125 0009167  82.3610 277.8393 14.79199338 31543
KUIPER-00021            
1 63736U 25088N   25326.88589567  .00002135  00000+0  30907-3 0  9994
2 63736  51.9012 216.3636 0008107  86.5723 273.6166 14.79940350 31668
KUIPER-00023            
1 63737U 25088P   25326.88490419  .00003516  00000+0  49018-3 0  9999
2 63737  51.8989 217.8357 0012313 103.7165 256.5169 14.79897055 31940
KUIPER-00024            
1 63738U 25088Q   25326.95771172  .00002529  00000+0  36321-3 0  9992
2 63738  51.9020 204.9672 0005254  99.4663 260.6894 14.79633992 32259
KUIPER-00025            
1 63739U 25088R   25327.08295402  .00002677  00000+0  37511-3 0  9991
2 63739  51.8989 212.9317 0009909  83.0657 277.1432 14.80500132 32017
