<?xml version="1.0" encoding="UTF-8"?>
<ndm xmlns:xsi="http://www.w3.org/2001/XMLSchema-instance" xsi:noNamespaceSchemaLocation="https://sanaregistry.org/r/ndmxml_unqualified/ndmxml-2.0.0-master-2.0.xsd">
<omm id="CCSDS_OMM_VERS" version="2.0">
<header><CREATION_DATE/><ORIGINATOR/></header><body><segment><metadata><OBJECT_NAME>KUIPER-00016</OBJECT_NAME><OBJECT_ID>2025-088J</OBJECT_ID><CENTER_NAME>EARTH</CENTER_NAME><REF_FRAME>TEME</REF_FRAME><TIME_SYSTEM>UTC</TIME_SYSTEM><MEAN_ELEMENT_THEORY>SGP4</MEAN_ELEMENT_THEORY></metadata><data><meanElements><EPOCH>2025-11-23T05:10:19.792704</EPOCH><MEAN_MOTION>14.79850293</MEAN_MOTION><ECCENTRICITY>.001342</ECCENTRICITY><INCLINATION>51.8992</INCLINATION><RA_OF_ASC_NODE>222.4240</RA_OF_ASC_NODE><ARG_OF_PERICENTER>73.2251</ARG_OF_PERICENTER><MEAN_ANOMALY>287.0183</MEAN_ANOMALY></meanElements><tleParameters><EPHEMERIS_TYPE>0</EPHEMERIS_TYPE><CLASSIFICATION_TYPE>U</CLASSIFICATION_TYPE><NORAD_CAT_ID>63732</NORAD_CAT_ID><ELEMENT_SET_NO>999</ELEMENT_SET_NO><REV_AT_EPOCH>3156</REV_AT_EPOCH><BSTAR>-.16451431E-2</BSTAR><MEAN_MOTION_DOT>-.12738E-3</MEAN_MOTION_DOT><MEAN_MOTION_DDOT>0</MEAN_MOTION_DDOT></tleParameters></data></segment></body></omm>
<omm id="CCSDS_OMM_VERS" version="2.0">
<header><CREATION_DATE/><ORIGINATOR/></header><body><segment><metadata><OBJECT_NAME>KUIPER-00018</OBJECT_NAME><OBJECT_ID>2025-088K</OBJECT_ID><CENTER_NAME>EARTH</CENTER_NAME><REF_FRAME>TEME</REF_FRAME><TIME_SYSTEM>UTC</TIME_SYSTEM><MEAN_ELEMENT_THEORY>SGP4</MEAN_ELEMENT_THEORY></metadata><data><meanElements><EPOCH>2025-11-23T02:13:41.951424</EPOCH><MEAN_MOTION>14.79935186</MEAN_MOTION><ECCENTRICITY>.00137474</ECCENTRICITY><INCLINATION>51.9010</INCLINATION><RA_OF_ASC_NODE>211.9161</RA_OF_ASC_NODE><ARG_OF_PERICENTER>95.1078</ARG_OF_PERICENTER><MEAN_ANOMALY>265.1454</MEAN_ANOMALY></meanElements><tleParameters><EPHEMERIS_TYPE>0</EPHEMERIS_TYPE><CLASSIFICATION_TYPE>U</CLASSIFICATION_TYPE><NORAD_CAT_ID>63733</NORAD_CAT_ID><ELEMENT_SET_NO>999</ELEMENT_SET_NO><REV_AT_EPOCH>3170</REV_AT_EPOCH><BSTAR>-.23074772E-3</BSTAR><MEAN_MOTION_DOT>-.1987E-4</MEAN_MOTION_DOT><MEAN_MOTION_DDOT>0</MEAN_MOTION_DDOT></tleParameters></data></segment></body></omm>
<omm id="CCSDS_OMM_VERS" version="2.0">
<header><CREATION_DATE/><ORIGINATOR/></header><body><segment><metadata><OBJECT_NAME>KUIPER-00019</OBJECT_NAME><OBJECT_ID>2025-088L</OBJECT_ID><CENTER_NAME>EARTH</CENTER_NAME><REF_FRAME>TEME</REF_FRAME><TIME_SYSTEM>UTC</TIME_SYSTEM><MEAN_ELEMENT_THEORY>SGP4</MEAN_ELEMENT_THEORY></metadata><data><meanElements><EPOCH>2025-11-23T02:15:13.309920</EPOCH><MEAN_MOTION>14.79941011</MEAN_MOTION><ECCENTRICITY>.00103643</ECCENTRICITY><INCLINATION>51.8976</INCLINATION><RA_OF_ASC_NODE>210.4651</RA_OF_ASC_NODE><ARG_OF_PERICENTER>107.4772</ARG_OF_PERICENTER><MEAN_ANOMALY>252.7324</MEAN_ANOMALY></meanElements><tleParameters><EPHEMERIS_TYPE>0</EPHEMERIS_TYPE><CLASSIFICATION_TYPE>U</CLASSIFICATION_TYPE><NORAD_CAT_ID>63734</NORAD_CAT_ID><ELEMENT_SET_NO>999</ELEMENT_SET_NO><REV_AT_EPOCH>3172</REV_AT_EPOCH><BSTAR>.82750799E-4</BSTAR><MEAN_MOTION_DOT>.408E-5</MEAN_MOTION_DOT><MEAN_MOTION_DDOT>0</MEAN_MOTION_DDOT></tleParameters></data></segment></body></omm>
<omm id="CCSDS_OMM_VERS" version="2.0">
<header><CREATION_DATE/><ORIGINATOR/></header><body><segment><metadata><OBJECT_NAME>KUIPER-00020</OBJECT_NAME><OBJECT_ID>2025-088M</OBJECT_ID><CENTER_NAME>EARTH</CENTER_NAME><REF_FRAME>TEME</REF_FRAME><TIME_SYSTEM>UTC</TIME_SYSTEM><MEAN_ELEMENT_THEORY>SGP4</MEAN_ELEMENT_THEORY></metadata><data><meanElements><EPOCH>2025-11-20T20:40:34.138272</EPOCH><MEAN_MOTION>14.79199338</MEAN_MOTION><ECCENTRICITY>.0009167</ECCENTRICITY><INCLINATION>51.9004</INCLINATION><RA_OF_ASC_NODE>224.3125</RA_OF_ASC_NODE><ARG_OF_PERICENTER>82.3610</ARG_OF_PERICENTER><MEAN_ANOMALY>277.8393</MEAN_ANOMALY></meanElements><tleParameters><EPHEMERIS_TYPE>0</EPHEMERIS_TYPE><CLASSIFICATION_TYPE>U</CLASSIFICATION_TYPE><NORAD_CAT_ID>63735</NORAD_CAT_ID><ELEMENT_SET_NO>999</ELEMENT_SET_NO><REV_AT_EPOCH>3154</REV_AT_EPOCH><BSTAR>.24137E-1</BSTAR><MEAN_MOTION_DOT>.185776E-2</MEAN_MOTION_DOT><MEAN_MOTION_DDOT>0</MEAN_MOTION_DDOT></tleParameters></data></segment></body></omm>
<omm id="CCSDS_OMM_VERS" version="2.0">
<header><CREATION_DATE/><ORIGINATOR/></header><body><segment><metadata><OBJECT_NAME>KUIPER-00021</OBJECT_NAME><OBJECT_ID>2025-088N</OBJECT_ID><CENTER_NAME>EARTH</CENTER_NAME><REF_FRAME>TEME</REF_FRAME><TIME_SYSTEM>UTC</TIME_SYSTEM><MEAN_ELEMENT_THEORY>SGP4</MEAN_ELEMENT_THEORY></metadata><data><meanElements><EPOCH>2025-11-22T21:15:41.385888</EPOCH><MEAN_MOTION>14.79940350</MEAN_MOTION><ECCENTRICITY>.00081074</ECCENTRICITY><INCLINATION>51.9012</INCLINATION><RA_OF_ASC_NODE>216.3636</RA_OF_ASC_NODE><ARG_OF_PERICENTER>86.5723</ARG_OF_PERICENTER><MEAN_ANOMALY>273.6166</MEAN_ANOMALY></meanElements><tleParameters><EPHEMERIS_TYPE>0</EPHEMERIS_TYPE><CLASSIFICATION_TYPE>U</CLASSIFICATION_TYPE><NORAD_CAT_ID>63736</NORAD_CAT_ID><ELEMENT_SET_NO>999</ELEMENT_SET_NO><REV_AT_EPOCH>3166</REV_AT_EPOCH><BSTAR>.3090728E-3</BSTAR><MEAN_MOTION_DOT>.2135E-4</MEAN_MOTION_DOT><MEAN_MOTION_DDOT>0</MEAN_MOTION_DDOT></tleParameters></data></segment></body></omm>
<omm id="CCSDS_OMM_VERS" version="2.0">
<header><CREATION_DATE/><ORIGINATOR/></header><body><segment><metadata><OBJECT_NAME>KUIPER-00023</OBJECT_NAME><OBJECT_ID>2025-088P</OBJECT_ID><CENTER_NAME>EARTH</CENTER_NAME><REF_FRAME>TEME</REF_FRAME><TIME_SYSTEM>UTC</TIME_SYSTEM><MEAN_ELEMENT_THEORY>SGP4</MEAN_ELEMENT_THEORY></metadata><data><meanElements><EPOCH>2025-11-22T21:14:15.722016</EPOCH><MEAN_MOTION>14.79897055</MEAN_MOTION><ECCENTRICITY>.00123134</ECCENTRICITY><INCLINATION>51.8989</INCLINATION><RA_OF_ASC_NODE>217.8357</RA_OF_ASC_NODE><ARG_OF_PERICENTER>103.7165</ARG_OF_PERICENTER><MEAN_ANOMALY>256.5169</MEAN_ANOMALY></meanElements><tleParameters><EPHEMERIS_TYPE>0</EPHEMERIS_TYPE><CLASSIFICATION_TYPE>U</CLASSIFICATION_TYPE><NORAD_CAT_ID>63737</NORAD_CAT_ID><ELEMENT_SET_NO>999</ELEMENT_SET_NO><REV_AT_EPOCH>3194</REV_AT_EPOCH><BSTAR>.49017848E-3</BSTAR><MEAN_MOTION_DOT>.3516E-4</MEAN_MOTION_DOT><MEAN_MOTION_DDOT>0</MEAN_MOTION_DDOT></tleParameters></data></segment></body></omm>
<omm id="CCSDS_OMM_VERS" version="2.0">
<header><CREATION_DATE/><ORIGINATOR/></header><body><segment><metadata><OBJECT_NAME>KUIPER-00024</OBJECT_NAME><OBJECT_ID>2025-088Q</OBJECT_ID><CENTER_NAME>EARTH</CENTER_NAME><REF_FRAME>TEME</REF_FRAME><TIME_SYSTEM>UTC</TIME_SYSTEM><MEAN_ELEMENT_THEORY>SGP4</MEAN_ELEMENT_THEORY></metadata><data><meanElements><EPOCH>2025-11-22T22:59:06.292608</EPOCH><MEAN_MOTION>14.79633992</MEAN_MOTION><ECCENTRICITY>.00052544</ECCENTRICITY><INCLINATION>51.9020</INCLINATION><RA_OF_ASC_NODE>204.9672</RA_OF_ASC_NODE><ARG_OF_PERICENTER>99.4663</ARG_OF_PERICENTER><MEAN_ANOMALY>260.6894</MEAN_ANOMALY></meanElements><tleParameters><EPHEMERIS_TYPE>0</EPHEMERIS_TYPE><CLASSIFICATION_TYPE>U</CLASSIFICATION_TYPE><NORAD_CAT_ID>63738</NORAD_CAT_ID><ELEMENT_SET_NO>999</ELEMENT_SET_NO><REV_AT_EPOCH>3225</REV_AT_EPOCH><BSTAR>.36321196E-3</BSTAR><MEAN_MOTION_DOT>.2529E-4</MEAN_MOTION_DOT><MEAN_MOTION_DDOT>0</MEAN_MOTION_DDOT></tleParameters></data></segment></body></omm>
<omm id="CCSDS_OMM_VERS" version="2.0">
<header><CREATION_DATE/><ORIGINATOR/></header><body><segment><metadata><OBJECT_NAME>KUIPER-00025</OBJECT_NAME><OBJECT_ID>2025-088R</OBJECT_ID><CENTER_NAME>EARTH</CENTER_NAME><REF_FRAME>TEME</REF_FRAME><TIME_SYSTEM>UTC</TIME_SYSTEM><MEAN_ELEMENT_THEORY>SGP4</MEAN_ELEMENT_THEORY></metadata><data><meanElements><EPOCH>2025-11-23T01:59:27.227328</EPOCH><MEAN_MOTION>14.80500132</MEAN_MOTION><ECCENTRICITY>.00099092</ECCENTRICITY><INCLINATION>51.8989</INCLINATION><RA_OF_ASC_NODE>212.9317</RA_OF_ASC_NODE><ARG_OF_PERICENTER>83.0657</ARG_OF_PERICENTER><MEAN_ANOMALY>277.1432</MEAN_ANOMALY></meanElements><tleParameters><EPHEMERIS_TYPE>0</EPHEMERIS_TYPE><CLASSIFICATION_TYPE>U</CLASSIFICATION_TYPE><NORAD_CAT_ID>63739</NORAD_CAT_ID><ELEMENT_SET_NO>999</ELEMENT_SET_NO><REV_AT_EPOCH>3201</REV_AT_EPOCH><BSTAR>.37511357E-3</BSTAR><MEAN_MOTION_DOT>.2677E-4</MEAN_MOTION_DOT><MEAN_MOTION_DDOT>0</MEAN_MOTION_DDOT></tleParameters></data></segment></body></omm>

</ndm>
